COSMOS 2501 (702K)      
1 40315U 14075A   25161.17808606  .00000094  00000+0  00000+0 0  9992
2 40315  63.6149 203.2522 0021678 211.3497 148.6106  2.13101510 81921
GPS BIIF-9  (PRN 26)    
1 40534U 15013A   25161.62191390  .00000064  00000+0  00000+0 0  9990
2 40534  53.2372 219.5506 0098753  35.1445 325.5977  2.00573729 74376
GSAT0203 (GALILEO 7)    
1 40544U 15017A   25157.21272210 -.00000087  00000+0  00000+0 0  9992
2 40544  56.8908 351.8385 0002002 284.2936  75.7118  1.70476194 62798
GSAT0204 (GALILEO 8)    
1 40545U 15017B   25162.16032970 -.00000073  00000+0  00000+0 0  9995
2 40545  56.8965 351.7213 0001824 236.5101 123.4964  1.70475819 63543
IRNSS-1D                
1 40547U 15018A   25161.66872509 -.00000255  00000+0  00000+0 0  9994
2 40547  26.7772 246.4421 0023748 189.0719 176.1762  1.00265931 37260
BEIDOU-3S IGSO-1S (C31) 
1 40549U 15019A   25161.98199678 -.00000187  00000+0  00000+0 0  9995
2 40549  49.9006 299.9270 0039612 192.0514 216.0702  1.00279864 37345
GPS BIIF-10 (PRN 08)    
1 40730U 15033A   25161.78431320 -.00000041  00000+0  00000+0 0  9993
2 40730  54.2834 282.3769 0103948  25.1331 335.3702  2.00575444 72541
BEIDOU-3S M2S (C58)     
1 40748U 15037A   25161.21362493 -.00000082  00000+0  00000+0 0  9993
2 40748  55.1981 314.8238 0008531 253.4230 106.4642  1.86229364 67196
BEIDOU-3S M1S (C57)     
1 40749U 15037B   25161.46834484 -.00000080  00000+0  00000+0 0  9993
2 40749  55.1943 314.8070 0003309  26.3610 333.6368  1.86253961 67207
GSAT0205 (GALILEO 9)    
1 40889U 15045A   25161.34189930  .00000040  00000+0  00000+0 0  9998
2 40889  55.0680 231.8764 0003047  27.5460 332.5622  1.70474173 60670
GSAT0206 (GALILEO 10)   
1 40890U 15045B   25160.97596477  .00000038  00000+0  00000+0 0  9993
2 40890  55.0669 231.8818 0001177   1.9874 358.1030  1.70474090 60693
BEIDOU-3S IGSO-2S (C56) 
1 40938U 15053A   25161.88686069 -.00000130  00000+0  00000+0 0  9997
2 40938  49.7962 263.1939 0059353 188.7345 222.7781  1.00269069 35636
GPS BIIF-11 (PRN 10)    
1 41019U 15062A   25161.83863726 -.00000066  00000+0  00000+0 0  9998
2 41019  56.6935  45.1522 0103222 228.2696 130.8944  2.00566976 70383
GSAT-15 (GAGAN/PRN 139) 
1 41028U 15065A   25162.36364418 -.00000239  00000+0  00000+0 0  9996
2 41028   0.0291 256.7391 0004307 173.0358  54.5838  1.00271743 35144
GSAT0209 (GALILEO 12)   
1 41174U 15079A   25161.14439132  .00000012  00000+0  00000+0 0  9992
2 41174  55.6062 111.4781 0005278 327.8190  32.0945  1.70473962 58430
GSAT0208 (GALILEO 11)   
1 41175U 15079B   25160.77781309  .00000012  00000+0  00000+0 0  9997
2 41175  55.6045 111.4854 0004674 329.3347  30.5839  1.70473895 58848
IRNSS-1E                
1 41241U 16003A   25161.72969791 -.00000307  00000+0  00000+0 0  9996
2 41241  32.4141  65.1445 0017777 182.3798  26.2852  1.00271920 34353
GPS BIIF-12 (PRN 32)    
1 41328U 16007A   25161.92125223 -.00000009  00000+0  00000+0 0  9991
2 41328  55.2989 104.1957 0087923 242.9035 116.1643  2.00570125 68434
COSMOS 2514 (751)       
1 41330U 16008A   25161.63092830 -.00000055  00000+0  00000+0 0  9991
2 41330  65.2369 325.7347 0010250 198.9499 161.0068  2.13102744 72704
IRNSS-1F                
1 41384U 16015A   25161.58596808  .00000176  00000+0  00000+0 0  9999
2 41384   4.4254 106.2590 0018185 184.2591 212.0470  1.00274750 33948
BEIDOU-2 IGSO-6 (C13)   
1 41434U 16021A   25161.49470862 -.00000158  00000+0  00000+0 0  9994
2 41434  59.7002  41.7472 0054029 229.0898 260.7780  1.00288994 33753
IRNSS-1G                
1 41469U 16027A   25161.84937983 -.00000317  00000+0  00000+0 0  9996
2 41469   4.2868 107.1483 0005863 351.0669 236.5253  1.00275075 33458
GSAT0211 (GALILEO 14)   
1 41549U 16030A   25160.90168273  .00000037  00000+0  00000+0 0  9991
2 41549  55.2166 231.9337 0002313 326.3170  33.7578  1.70474254 56322
GSAT0210 (GALILEO 13)   
1 41550U 16030B   25157.63994145  .00000011  00000+0  00000+0 0  9996
2 41550  55.2181 232.0218 0004478 235.6626 124.3628  1.70474259 56264
BEIDOU-2 G7 (C03)       
1 41586U 16037A   25162.51789792 -.00000336  00000+0  00000+0 0  9996
2 41586   1.7507  68.8745 0010437  10.5544 117.7251  1.00271099 33063
EUTELSAT 117 WEST B (W*)
1 41589U 16038B   25161.36850184  .00000009  00000+0  00000+0 0  9992
2 41589   0.0108 156.9534 0000174  99.2245  18.4345  1.00268969 32937
GSAT0207 (GALILEO 15)   
1 41859U 16069A   25161.43779442  .00000012  00000+0  00000+0 0  9995
2 41859  55.2740 111.3842 0005456 315.5943  44.3078  1.70473906 53069
GSAT0212 (GALILEO 16)   
1 41860U 16069B   25161.29166563  .00000011  00000+0  00000+0 0  9994
2 41860  55.2717 111.3840 0004338 340.4131  19.5160  1.70474064 53317
GSAT0213 (GALILEO 17)   
1 41861U 16069C   25158.72671707  .00000012  00000+0  00000+0 0  9991
2 41861  55.2732 111.4621 0005329 298.6117  61.2853  1.70474525 53137
GSAT0214 (GALILEO 18)   
1 41862U 16069D   25157.11262957  .00000015  00000+0  00000+0 0  9990
2 41862  55.2707 111.4999 0004524 303.7307  56.1822  1.70474200 53233
SES-15 (WAAS/PRN 133)   
1 42709U 17026A   25159.75044660  .00000079  00000+0  00000+0 0  9996
2 42709   0.0255  23.9490 0000556  33.1566 341.2729  1.00269283  3690
QZS-2 (QZSS/PRN 194)    
1 42738U 17028A   25162.53991926 -.00000139  00000+0  00000+0 0  9994
2 42738  40.0003 248.5695 0760451 269.1469  77.9375  1.00285762 29406
QZS-3 (QZSS/PRN 199)    
1 42917U 17048A   25161.03366101 -.00000329  00000+0  00000+0 0  9991
2 42917   0.0840 131.4381 0002932 309.2648 317.0258  1.00267615 28527
COSMOS 2522 (752)       
1 42939U 17055A   25162.40840215  .00000091  00000+0  00000+0 0  9993
2 42939  64.0766 204.5070 0010324 240.1617 119.8258  2.13101962 60079
QZS-4 (QZSS/PRN 195)    
1 42965U 17062A   25161.80900309 -.00000329  00000+0  00000+0 0  9999
2 42965  40.3315 348.2251 0745103 271.4682  68.0294  1.00253966 28088
BEIDOU-3 M1 (C19)       
1 43001U 17069A   25162.09728993 -.00000047  00000+0  00000+0 0  9994
2 43001  56.3640  75.3397 0010729 317.1472  42.7753  1.86231527 51696
BEIDOU-3 M2 (C20)       
1 43002U 17069B   25161.49830493 -.00000053  00000+0  00000+0 0  9994
2 43002  56.3628  75.3952 0009206 341.8646  18.1052  1.86230954 51675
GSAT0215 (GALILEO 19)   
1 43055U 17079A   25162.29557883  .00000046  00000+0  00000+0 0  9992
2 43055  55.1928 231.7123 0003086 254.3326 105.7300  1.70474818 46668
GSAT0216 (GALILEO 20)   
1 43056U 17079B   25159.06748520  .00000024  00000+0  00000+0 0  9990
2 43056  55.1952 231.8010 0003982 268.6307  91.4011  1.70474961 46629
GSAT0217 (GALILEO 21)   
1 43057U 17079C   25161.63445141  .00000042  00000+0  00000+0 0  9990
2 43057  55.1923 231.7287 0002958 282.0480  78.0127  1.70474815 46657
GSAT0218 (GALILEO 22)   
1 43058U 17079D   25160.09476324  .00000032  00000+0  00000+0 0  9996
2 43058  55.1930 231.7687 0004440 266.0798  93.9540  1.70474842 46657
BEIDOU-3 M7 (C27)       
1 43107U 18003A   25161.24384048 -.00000083  00000+0  00000+0 0  9995
2 43107  54.6565 315.2560 0004701  84.9683 275.0669  1.86232667 50427
BEIDOU-3 M8 (C28)       
1 43108U 18003B   25161.18721578 -.00000083  00000+0  00000+0 0  9992
2 43108  54.6494 315.2417 0002637 257.7968 102.1550  1.86231088 50438
BEIDOU-3 M4 (C22)       
1 43207U 18018A   25161.62852461 -.00000052  00000+0  00000+0 0  9999
2 43207  56.3225  75.4320 0007327   7.5909 352.4233  1.86231440 49825
BEIDOU-3 M3 (C21)       
1 43208U 18018B   25161.15810932 -.00000056  00000+0  00000+0 0  9999
2 43208  56.3216  75.4517 0008833 330.9724  28.9793  1.86231353 49813
BEIDOU-3 M9 (C29)       
1 43245U 18029A   25161.91281807 -.00000077  00000+0  00000+0 0  9992
2 43245  54.5289 312.9053 0000643 150.6055 209.3792  1.86232942 48989
BEIDOU-3 M10 (C30)      
1 43246U 18029B   25162.38234618 -.00000074  00000+0  00000+0 0  9990
2 43246  54.5258 312.9161 0003753  30.1015 329.9019  1.86229252 48980
IRNSS-1I                
1 43286U 18035A   25160.85808470  .00000081  00000+0  00000+0 0  9991
2 43286  29.1300  80.0026 0018296 183.4890 358.9935  1.00278196 26346
COSMOS 2527 (756)       
1 43508U 18053A   25162.36844708 -.00000017  00000+0  00000+0 0  9990
2 43508  65.3729  86.2957 0007597 240.8582 119.0657  2.13102324 54374
BEIDOU-2 IGSO-7 (C16)   
1 43539U 18057A   25161.65139104 -.00000041  00000+0  00000+0 0  9993
2 43539  55.1658 166.2747 0089534 236.5560 202.9994  1.00259110 25400
GSAT0221 (GALILEO 25)   
1 43564U 18060A   25161.17026303 -.00000075  00000+0  00000+0 0  9995
2 43564  57.2706 351.8218 0002607 305.5094  54.4924  1.70476047 42820
GSAT0222 (GALILEO 26)   
1 43565U 18060B   25157.86982047 -.00000085  00000+0  00000+0 0  9994
2 43565  57.2749 351.9133 0001677 250.8524 109.1578  1.70475785 42811
GSAT0219 (GALILEO 23)   
1 43566U 18060C   25161.02411239 -.00000075  00000+0  00000+0 0  9997
2 43566  57.2735 351.8301 0002135 326.8936  33.1194  1.70476001 42849
GSAT0220 (GALILEO 24)   
1 43567U 18060D   25158.89860261 -.00000082  00000+0  00000+0 0  9990
2 43567  57.2749 351.8873 0002193 319.5681  40.4440  1.70476092 42798
BEIDOU-3 M5 (C23)       
1 43581U 18062A   25162.07064742  .00000095  00000+0  00000+0 0  9996
2 43581  54.1000 194.9214 0005400 280.4686  79.5532  1.86228860 46727
BEIDOU-3 M6 (C24)       
1 43582U 18062B   25162.47169499  .00000093  00000+0  00000+0 0  9994
2 43582  54.0997 194.8970 0004444   3.8564 356.2283  1.86229696 46736
BEIDOU-3 M12 (C26)      
1 43602U 18067A   25162.40746959  .00000094  00000+0  00000+0 0  9998
2 43602  54.1930 193.6134 0007158  24.3776 335.7358  1.86227899 46215
BEIDOU-3 M11 (C25)      
1 43603U 18067B   25162.54150113  .00000093  00000+0  00000+0 0  9994
2 43603  54.1902 193.5732 0004020   6.9921 353.0925  1.86227379 46240
BEIDOU-3 M13 (C32)      
1 43622U 18072A   25161.42614613 -.00000054  00000+0  00000+0 0  9995
2 43622  56.2950  74.9593 0007411 319.9072  40.0411  1.86231506 45738
BEIDOU-3 M14 (C33)      
1 43623U 18072B   25161.29162324 -.00000055  00000+0  00000+0 0  9999
2 43623  56.2968  74.9574 0006020 348.8598  11.1292  1.86231547 45726
